{
    "links": {
        "self": "http://www.neowsapp.com/rest/v1/neo/3724516?api_key=iIulBulltgU6a56xZRHN4H3l9WmuAYTsLGpBGhQ2"
    },
    "id": "3724516",
    "neo_reference_id": "3724516",
    "name": "(2015 OA26)",
    "designation": "2015 OA26",
    "nasa_jpl_url": "http://ssd.jpl.nasa.gov/sbdb.cgi?sstr=3724516",
    "absolute_magnitude_h": 24.2,
    "estimated_diameter": {
        "kilometers": {
            "estimated_diameter_min": 0.0384197891,
            "estimated_diameter_max": 0.0859092601
        },
        "meters": {
            "estimated_diameter_min": 38.4197891064,
            "estimated_diameter_max": 85.9092601232
        },
        "miles": {
            "estimated_diameter_min": 0.0238729428,
            "estimated_diameter_max": 0.0533815229
        },
        "feet": {
            "estimated_diameter_min": 126.0491808919,
            "estimated_diameter_max": 281.8545369825
        }
    },
    "is_potentially_hazardous_asteroid": false,
    "close_approach_data": [
        {
            "close_approach_date": "1981-11-27",
            "close_approach_date_full": "1981-Nov-27 06:37",
            "epoch_date_close_approach": 375691020000,
            "relative_velocity": {
                "kilometers_per_second": "14.0416511125",
                "kilometers_per_hour": "50549.94400486",
                "miles_per_hour": "31409.7693734642"
            },
            "miss_distance": {
                "astronomical": "0.0931848207",
                "lunar": "36.2488952523",
                "kilometers": "13940250.693051909",
                "miles": "8662070.1151339842"
            },
            "orbiting_body": "Mars"
        },
        {
            "close_approach_date": "2010-03-25",
            "close_approach_date_full": "2010-Mar-25 04:11",
            "epoch_date_close_approach": 1269490260000,
            "relative_velocity": {
                "kilometers_per_second": "17.7151563044",
                "kilometers_per_hour": "63774.56269598",
                "miles_per_hour": "39627.0331373994"
            },
            "miss_distance": {
                "astronomical": "0.2211466666",
                "lunar": "86.0260533074",
                "kilometers": "33083070.280960142",
                "miles": "20556866.6380162796"
            },
            "orbiting_body": "Earth"
        },
        {
            "close_approach_date": "2015-07-17",
            "close_approach_date_full": "2015-Jul-17 23:26",
            "epoch_date_close_approach": 1437175560000,
            "relative_velocity": {
                "kilometers_per_second": "11.237861975",
                "kilometers_per_hour": "40456.3031100947",
                "miles_per_hour": "25137.9734519363"
            },
            "miss_distance": {
                "astronomical": "0.0058631756",
                "lunar": "2.2807753084",
                "kilometers": "877118.581195972",
                "miles": "545016.2136175336"
            },
            "orbiting_body": "Moon"
        },
        {
            "close_approach_date": "2015-07-18",
            "close_approach_date_full": "2015-Jul-18 11:20",
            "epoch_date_close_approach": 1437218400000,
            "relative_velocity": {
                "kilometers_per_second": "11.0680400127",
                "kilometers_per_hour": "39844.9440456696",
                "miles_per_hour": "24758.0987043773"
            },
            "miss_distance": {
                "astronomical": "0.0061145131",
                "lunar": "2.3785455959",
                "kilometers": "914718.135847097",
                "miles": "568379.4935080586"
            },
            "orbiting_body": "Earth"
        },
        {
            "close_approach_date": "2020-08-09",
            "close_approach_date_full": "2020-Aug-09 04:34",
            "epoch_date_close_approach": 1596947640000,
            "relative_velocity": {
                "kilometers_per_second": "19.175465942",
                "kilometers_per_hour": "69031.677391308",
                "miles_per_hour": "42893.5997657269"
            },
            "miss_distance": {
                "astronomical": "0.2684171596",
                "lunar": "104.4142750844",
                "kilometers": "40154635.347610052",
                "miles": "24950933.4148486376"
            },
            "orbiting_body": "Earth"
        }
    ],
    "orbital_data": {
        "orbit_id": "10",
        "orbit_determination_date": "2017-04-06 08:32:41",
        "first_observation_date": "2015-07-23",
        "last_observation_date": "2015-08-21",
        "data_arc_in_days": 29,
        "observations_used": 80,
        "orbit_uncertainty": "7",
        "minimum_orbit_intersection": ".000903271",
        "jupiter_tisserand_invariant": "3.830",
        "epoch_osculation": "2459000.5",
        "eccentricity": ".5158459316515861",
        "semi_major_axis": "1.853226008604193",
        "inclination": "1.881104952362629",
        "ascending_node_longitude": "294.6183802411511",
        "orbital_period": "921.4908064867333",
        "perihelion_distance": ".8972469116348127",
        "perihelion_argument": "312.6797318023986",
        "aphelion_distance": "2.809205105573573",
        "perihelion_time": "2459028.082238683028",
        "mean_anomaly": "349.224411295271",
        "mean_motion": ".3906712877283414",
        "equinox": "J2000",
        "orbit_class": {
            "orbit_class_type": "APO",
            "orbit_class_description": "Near-Earth asteroid orbits which cross the Earth’s orbit similar to that of 1862 Apollo",
            "orbit_class_range": "a (semi-major axis) > 1.0 AU; q (perihelion) < 1.017 AU"
        }
    },
    "is_sentry_object": false
}